[
    {
        "model": "catalog.CatalogEntry",
        "fields": {
            "international_designator": "1998-067A",
            "norad_catalog_number": "25544",
            "names": "ISS (ZARYA)",
            "has_payload": false,
            "operational_status_code": "+",
            "owner": "ISS",
            "launch_date": "1998-11-20 00:00:00+00:00",
            "launch_site": "TYMSC",
            "decay_date": "1970-01-01 00:00:00+00:00",
            "orbital_period": 92.7,
            "inclination": 51.6,
            "apogee": 409,
            "perigee": 399,
            "radar_cross_section": 404.0612,
            "orbital_status_code": null
        }
    },
    {
        "model": "catalog.CatalogEntry",
        "fields": {
            "international_designator": "2011-053A",
            "norad_catalog_number": "37820",
            "names": "TIANGONG 1",
            "has_payload": true,
            "operational_status_code": "+",
            "owner": "PRC",
            "launch_date": "2011-09-29 00:00:00+00:00",
            "launch_site": "JSC",
            "decay_date": "1970-01-01 00:00:00+00:00",
            "orbital_period": 91.5,
            "inclination": 42.8,
            "apogee": 363,
            "perigee": 338,
            "radar_cross_section": 21.2900,
            "orbital_status_code": null
        }
    },
    {
        "model": "catalog.TLE",
        "fields": {
            "id": 1,
            "first_line": "ISS (ZARYA)",
            "second_line": "1 25544U 98067A   16314.27765366  .00003233  00000-0  57183-4 0  9996",
            "third_line": "2 25544  51.6438  54.4261 0007064 189.3566  21.9969 15.53566099 27550",
            "satellite_number": "25544",
            "classification": "U",
            "international_designator_year": "98",
            "international_designator_number": "067",
            "international_designator_piece": "A",
            "epoch_year": "16",
            "epoch_day": 314.27765366,
            "first_derivative_mean_motion": 0.00003233,
            "second_derivative_mean_motion": 0,
            "drag": 0.0057183,
            "set_number": 999,
            "first_checksum": 6,
            "inclination": 51.6438,
            "ascending_node": 54.4261,
            "eccentricity": 0.0007064,
            "perigee_argument": 189.3566,
            "mean_anomaly": 21.9969,
            "mean_motion": 15.53566099,
            "revolution_number": 2775,
            "second_checksum": 0,
            "date_added": "2016-11-10 01:00:53+00:00"
        }
    },
    {
        "model": "catalog.TLE",
        "fields": {
            "id": 2,
            "first_line": "ISS (ZARYA)",
            "second_line": "1 25544U 98067A   17059.57770171  .00002783  00000-0  48698-4 0  9996",
            "third_line": "2 25544  51.6420 219.7044 0006311 245.0116 243.5333 15.54476170 44862",
            "satellite_number": "25544",
            "classification": "U",
            "international_designator_year": "98",
            "international_designator_number": "067",
            "international_designator_piece": "A",
            "epoch_year": "17",
            "epoch_day": 59.57770171,
            "first_derivative_mean_motion": 0.0002783,
            "second_derivative_mean_motion": 0,
            "drag": 0.00048698,
            "set_number": 999,
            "first_checksum": 6,
            "inclination": 51.6420,
            "ascending_node": 219.7044,
            "eccentricity": 0.0006311,
            "perigee_argument": 245.0116,
            "mean_anomaly": 243.5333,
            "mean_motion": 15.54476170,
            "revolution_number": 4486,
            "second_checksum": 2,
            "date_added": "2017-02-28 12:51:53+00:00"
        }
    },
    {
        "model": "catalog.TLE",
        "fields": {
            "id": 3,
            "first_line": "TIANGONG 1",
            "second_line": "1 37820U 11053A   17059.53677256  .00025847  00000-0  18191-3 0  9992",
            "third_line": "2 37820  42.7613 142.7688 0017525  24.0508 103.6842 15.73368786310822",
            "satellite_number": "37820",
            "classification": "U",
            "international_designator_year": "11",
            "international_designator_number": "053",
            "international_designator_piece": "A",
            "epoch_year": "17",
            "epoch_day": 59.53677256,
            "first_derivative_mean_motion": 0.00025847,
            "second_derivative_mean_motion": 0,
            "drag": 0.0018191,
            "set_number": 999,
            "first_checksum": 2,
            "inclination": 42.7613,
            "ascending_node": 142.7688,
            "eccentricity": 0.0017525,
            "perigee_argument": 24.0508,
            "mean_anomaly": 103.6842,
            "mean_motion": 15.73368786,
            "revolution_number": 31082,
            "second_checksum": 2,
            "date_added": "2017-02-28 21:45:13+00:00"
        }
    },
    {
        "model": "catalog.TLE",
        "fields": {
            "id": 4,
            "first_line": "ISS (ZARYA)",
            "second_line": "1 25544U 98067A   17059.83075553  .00002893  00000-0  50327-4 0  9991",
            "third_line": "2 25544  51.6426 218.4413 0006277 245.7437 219.8623 15.54478446 44909",
            "satellite_number": "25544",
            "classification": "U",
            "international_designator_year": "98",
            "international_designator_number": "067",
            "international_designator_piece": "A",
            "epoch_year": "17",
            "epoch_day": 59.83075553,
            "first_derivative_mean_motion": 0.00002893,
            "second_derivative_mean_motion": 0,
            "drag": 0.00050327,
            "set_number": 999,
            "first_checksum": 1,
            "inclination": 51.6426,
            "ascending_node": 218.4413,
            "eccentricity": 0.0006277,
            "perigee_argument": 245.7437,
            "mean_anomaly": 219.8623,
            "mean_motion": 15.54478446,
            "revolution_number": 4490,
            "second_checksum": 9,
            "date_added": "2017-02-28 22:47:12+00:00"
        }
    }
]
